ASIASAT 6               
1 40141U 14052A   17230.19789387 -.00000387  00000-0  00000+0 0  9995
2 40141   0.0111 108.7025 0000307  58.1012 351.0770  1.00269429 10822
OPTUS 10                
1 40146U 14054A   17229.63835770 -.00000098  00000-0  00000+0 0  9996
2 40146   0.0169 100.1429 0001482  47.9906 211.8672  1.00270355 10786
MEASAT-3B               
1 40147U 14054B   17229.95894426 -.00000265  00000-0  00000+0 0  9991
2 40147   0.0445 302.1802 0001127 232.0693 228.9542  1.00270571 10830
LUCH (OLYMP)            
1 40258U 14058A   17230.16994027  .00000131  00000-0  00000+0 0  9992
2 40258   0.0735 271.7489 0000549 208.8559 299.9646  1.00272616 10606
HIMAWARI-8              
1 40267U 14060A   17229.70308346 -.00000299  00000-0  00000+0 0  9992
2 40267   0.0534 273.4288 0000560 257.4666 189.0971  1.00270793 10526
IRNSS-1C                
1 40269U 14061A   17229.54996933 -.00000184  00000-0  00000-0 0  9996
2 40269   2.9104 247.2506 0020370   4.9392 354.9018  1.00269181 10340
INTELSAT 30 (IS-30)     
1 40271U 14062A   17229.97031781 -.00000175  00000-0  00000-0 0  9998
2 40271   0.0161 104.5041 0001558 342.8867 133.3822  1.00272239 10353
ARSAT 1                 
1 40272U 14062B   17229.83657021 -.00000283  00000-0  00000-0 0  9995
2 40272   0.0429 265.4697 0001033 268.2788  22.0018  1.00270737 10279
EXPRESS-AM6             
1 40277U 14064A   17230.31438405  .00000073  00000-0  00000+0 0  9995
2 40277   0.0493 275.9914 0000680  12.8681 204.1677  1.00270297 10337
GSAT-16                 
1 40332U 14078A   17228.94301391  .00000064  00000-0  00000-0 0  9992
2 40332   0.0602 275.2825 0006085 184.7758 260.0038  1.00270045  9773
DIRECTV 14              
1 40333U 14078B   17230.38451992 -.00000151  00000-0  00000+0 0  9994
2 40333   0.0458 278.5519 0001171  46.6621  40.9020  1.00271267  9914
YAMAL 401               
1 40345U 14082A   17230.02749633 -.00000252  00000-0  00000+0 0  9997
2 40345   0.0347 156.8057 0000468 266.8669   2.7141  1.00269458 10073
ASTRA 2G                
1 40364U 14089A   17229.01742838  .00000129  00000-0  00000+0 0  9994
2 40364   0.0455 310.1933 0003256 141.6920 268.1453  1.00270577  9672
FENGYUN 2G              
1 40367U 14090A   17229.92142862 -.00000354  00000-0  00000-0 0  9992
2 40367   0.3222 246.5876 0003349  17.3851 138.8106  1.00278322  9701
INMARSAT 5-F2           
1 40384U 15005A   17230.14165010 -.00000310  00000-0  00000+0 0  9995
2 40384   0.0200 110.4040 0000379 291.0019 281.2863  1.00270147  9331
ABS-3A                  
1 40424U 15010A   17230.10096619 -.00000051  00000-0  00000+0 0  9992
2 40424   0.0132  88.5673 0002129 341.2226 290.2234  1.00270449  9078
EUTELSAT 115 WEST B     
1 40425U 15010B   17229.41371758 -.00000047  00000-0  00000+0 0  9990
2 40425   0.0089 229.0371 0000599 214.5117 276.4503  1.00272650  9090
EXPRESS-AM7             
1 40505U 15012A   17230.23729943  .00000125  00000-0  00000+0 0  9992
2 40505   0.0157 106.3862 0002813  30.8402 315.0233  1.00275941  9023
IRNSS-1D                
1 40547U 15018A   17229.60046430 -.00000308  00000-0  00000+0 0  9990
2 40547  28.9583 294.0602 0020744 185.9202 174.1349  1.00269408  8900
BEIDOU I1-S             
1 40549U 15019A   17229.76785472 -.00000203  00000-0  00000-0 0  9991
2 40549  54.3403 333.0732 0042459 187.9497 177.5224  1.00282076  8746
THOR 7                  
1 40613U 15022A   17230.09451120 -.00000033  00000-0  00000+0 0  9995
2 40613   0.0295 224.7414 0002411 288.5734 206.6881  1.00271635  8487
TURKMENALEM52E/MONACOSAT
1 40617U 15023A   17228.95126906  .00000083  00000-0  00000+0 0  9997
2 40617   0.0153  97.1969 0002209  56.4040 206.4104  1.00268789  8491
DIRECTV 15              
1 40663U 15026A   17229.38006823 -.00000125  00000-0  00000-0 0  9993
2 40663   0.0164 100.8457 0000230  97.0610 162.0848  1.00269542  8179
SKY MEXICO-1            
1 40664U 15026B   17230.31089936 -.00000260  00000-0  00000+0 0  9994
2 40664   0.0116 108.3642 0001517  46.2671 205.3660  1.00272950  8202
METEOSAT-11 (MSG-4)     
1 40732U 15034A   17229.76148817 -.00000050  00000-0  00000-0 0  9998
2 40732   1.7219 237.5116 0001010 300.9770  58.5651  1.00276067  7704
STAR ONE C4             
1 40733U 15034B   17229.28926884 -.00000287  00000-0  00000+0 0  9995
2 40733   0.0378 330.0334 0000901 139.7174 250.2515  1.00272041  7694
INTELSAT 34 (IS-34)     
1 40874U 15039A   17229.24917078 -.00000307  00000-0  00000+0 0  9990
2 40874   0.0197 109.0327 0000357 252.2695 358.6978  1.00271008  7338
EUTELSAT 8 WEST B       
1 40875U 15039B   17230.11488537 -.00000090  00000-0  00000+0 0  9991
2 40875   0.0667  20.8240 0002312 118.1398 221.0442  1.00272071  7350
GSAT-6                  
1 40880U 15041A   17229.86254545 -.00000188  00000-0  00000+0 0  9998
2 40880   0.0837 101.3373 0007002 157.9048 100.6703  1.00271063  7296
INMARSAT 5-F3           
1 40882U 15042A   17229.59511948  .00000027  00000-0  00000+0 0  9995
2 40882   0.0170 115.3219 0000184 102.7415 141.9353  1.00268511  7217
TJS-1                   
1 40892U 15046A   17230.58371682 -.00000182  00000-0  00000+0 0  9993
2 40892   0.0398 194.3796 0003200 141.6855 356.1645  1.00273633  7214
EXPRESS-AM8             
1 40895U 15048A   17230.41295995 -.00000137  00000-0  00000+0 0  9992
2 40895   0.0437 277.0420 0000910   7.3711 177.1897  1.00270562  7047
BEIDOU I2-S             
1 40938U 15053A   17229.90514985 -.00000139  00000-0  00000-0 0  9994
2 40938  54.1180 295.9804 0048415 176.1693 276.2343  1.00281295  7021
SKY MUSTER (NBN1A)      
1 40940U 15054A   17229.70417853 -.00000302  00000-0  00000+0 0  9993
2 40940   0.0134 146.6524 0001411   6.6430 206.7035  1.00270155  6944
ARSAT 2                 
1 40941U 15054B   17229.31978738 -.00000247  00000-0  00000+0 0  9993
2 40941   0.0400 270.0862 0001205 241.0120 208.9009  1.00270673  6973
MORELOS 3               
1 40946U 15056A   17230.32147780 -.00000061  00000-0  00000+0 0  9992
2 40946   6.3445 329.3546 0003412 182.5366 177.5928  1.00272082  6951
APSTAR 9                
1 40982U 15059A   17229.69927138 -.00000290  00000-0  00000-0 0  9991
2 40982   0.0561 264.3280 0000872 330.7121 124.9431  1.00269638  6810
TURKSAT 4B              
1 40984U 15060A   17229.95424005  .00000091  00000-0  00000+0 0  9996
2 40984   0.0021 102.8140 0002458  49.4960 207.6940  1.00270706  6778
CHINASAT 2C (ZX 2C)     
1 41021U 15063A   17229.27479890 -.00000345  00000-0  00000-0 0  9993
2 41021   0.0348 259.4125 0001283   0.9871 267.7633  1.00268599  6664
GSAT-15                 
1 41028U 15065A   17229.83370284 -.00000282  00000-0  00000-0 0  9991
2 41028   0.0795 267.6993 0000865 202.3655 249.9355  1.00272630  6499
BADR-7 (ARABSAT-6B)     
1 41029U 15065B   17230.02061004  .00000120  00000-0  00000+0 0  9991
2 41029   0.0500 261.7511 0004236 321.5858 136.6205  1.00272131  6571
LAOSAT 1                
1 41034U 15067A   17229.73668198 -.00000367  00000-0  00000-0 0  9997
2 41034   0.0108 138.6242 0002894  56.5849 164.7737  1.00271928  6527
TELSTAR 12V             
1 41036U 15068A   17229.13697492 -.00000141  00000-0  00000-0 0  9993
2 41036   0.0107 122.4646 0001833  38.8826 198.6595  1.00269477  6284
CHINASAT 1C (ZX 1C)     
1 41103U 15073A   17230.09354918 -.00000175  00000-0  00000+0 0  9990
2 41103   0.0364 246.6610 0003240  17.2995 177.8706  1.00270195  6334
ELEKTRO-L 2             
1 41105U 15074A   17230.09841374 -.00000122  00000-0  00000+0 0  9992
2 41105   0.0186 326.5300 0001670 286.5216 185.1185  1.00273060  6184
COSMOS 2513             
1 41121U 15075A   17229.66095546 -.00000161  00000-0  00000+0 0  9997
2 41121   0.0807 116.9343 0003365  53.6988 113.7582  1.00270893  6259
EXPRESS-AMU1            
1 41191U 15082A   17230.32410470  .00000130  00000-0  00000+0 0  9999
2 41191   0.0114 121.8626 0002132  24.3047 333.4537  1.00271439  6177
GAOFEN 4                
1 41194U 15083A   17230.00360928 -.00000359  00000-0  00000+0 0  9994
2 41194   0.0118 159.5544 0005348  73.9894 200.0170  1.00273975  6150
BELINTERSAT-1           
1 41238U 16001A   17229.15391568  .00000085  00000-0  00000+0 0  9997
2 41238   0.0165  80.9887 0001291  53.4224 298.2322  1.00271994  5922
IRNSS-1E                
1 41241U 16003A   17229.10060730 -.00000320  00000-0  00000+0 0  9995
2 41241  28.8773 113.6395 0018510 184.5725 175.4617  1.00269863  5847
INTELSAT 29E (IS-29E)   
1 41308U 16004A   17230.23118360 -.00000307  00000-0  00000+0 0  9994
2 41308   0.0555 275.4704 0001402 234.1299 210.3979  1.00272467  5824
EUTELSAT 9B             
1 41310U 16005A   17229.07036706  .00000040  00000-0  00000+0 0  9994
2 41310   0.0445 103.6888 0002781 156.2587 100.0144  1.00270321  5764
SES-9                   
1 41380U 16013A   17229.79265109 -.00000369  00000-0  00000-0 0  9996
2 41380   0.0550 283.0410 0001178 217.9148 219.0439  1.00271035  5153
EUTELSAT 65 WEST A      
1 41382U 16014A   17229.27596628 -.00000298  00000-0  00000+0 0  9995
2 41382   0.0491  12.9332 0001443 158.0457 189.0165  1.00270542  5305
IRNSS-1F                
1 41384U 16015A   17229.73541236  .00000135  00000-0  00000+0 0  9993
2 41384   4.0348 263.5689 0020915 186.9702 172.9694  1.00267729  5355
BEIDOU IGSO 6           
1 41434U 16021A   17229.35955392 -.00000122  00000-0  10000-3 0  9998
2 41434  55.6170  71.7244 0028127 178.3045 298.5132  1.00258938  5141
IRNSS-1G                
1 41469U 16027A   17229.47049661 -.00000357  00000-0  00000-0 0  9994
2 41469   4.1069 264.9766 0004361 204.6736 155.2863  1.00275108  4859
JCSAT 2B                
1 41471U 16028A   17228.66881553 -.00000186  00000-0  00000+0 0  9991
2 41471   0.0198 109.9882 0001688  43.1160 206.9045  1.00268337  4732
THAICOM 8               
1 41552U 16031A   17229.87516530 -.00000145  00000-0  00000-0 0  9995
2 41552   0.0564  43.7786 0002191  17.2524 298.9820  1.00270910  4386
